1 57497U 23113C   24016.21290772  .00018154  00000+0  13550-2 0  9999
2 57497  43.0020 314.6493 0001340 237.0919 122.9794 15.02549686 25706
STARLINK-30203          
1 57498U 23113D   24016.20292084  .00025350  00000+0  18842-2 0  9992
2 57498  43.0021 314.5664 0001079 254.5326 105.5397 15.02550096 25806
STARLINK-30169          
1 57499U 23113E   24016.16668051  .00016478  00000+0  12316-2 0  9990
2 57499  42.9997 302.4343 0001489 252.7937 107.2743 15.02547511 25789
STARLINK-30164          
1 57500U 23113F   24016.19293347  .00024907  00000+0  18521-2 0  9998
2 57500  43.0029 314.4889 0001408 273.9746  86.0935 15.02540809 25805
STARLINK-30072          
1 57501U 23113G   24015.92035873  .00009066  00000+0  68515-3 0  9995
2 57501  43.0027 315.8755 0001146 257.1905 102.8810 15.02545302 25656
STARLINK-30228          
1 57502U 23113H   24015.95365939  .00011791  00000+0  88637-3 0  9993
2 57502  43.0030 316.1217 0001271 248.9827 111.0879 15.02538608 25656
STARLINK-30230          
1 57503U 23113J   24016.19625679  .00032759  00000+0  24280-2 0  9991
2 57503  43.0029 314.5092 0001391 260.8060  99.2625 15.02548485 25697
STARLINK-30213          
1 57504U 23113K   24016.05010514  .00000630  00000+0  61733-4 0  9992
2 57504  43.0029 315.9788 0001559 287.8831  72.1841 15.02535341 25772
STARLINK-30227          
1 57505U 23113L   24016.15667469  .00027149  00000+0  20160-2 0  9992
2 57505  43.0030 302.0591 0001298 258.4503 101.6193 15.02556041 26009
STARLINK-30212          
1 57506U 23113M   24015.98029349  .00019806  00000+0  14769-2 0  9991
2 57506  43.0028 316.3214 0001531 245.2569 114.8114 15.02541889 25601
STARLINK-30219          
1 57507U 23113N   24016.17639946  .00007343  00000+0  55806-3 0  9995
2 57507  43.0028 315.2247 0001179 275.9644  84.1064 15.02539706 25796
STARLINK-30074          
1 57508U 23113P   24015.99016908  .00013796  00000+0  10346-2 0  9990
2 57508  43.0032 315.5420 0001488 242.6596 117.4095 15.02526717 25565
STARLINK-30082          
1 57509U 23113Q   24016.16307783  .00032191  00000+0  23858-2 0  9997
2 57509  43.0030 315.1261 0001349 244.9095 115.1608 15.02557143 25795
STARLINK-30153          
1 57510U 23113R   24016.15974992  .00012020  00000+0  90301-3 0  9997
2 57510  43.0032 315.1110 0001349 262.8871  97.1818 15.02550309 25680
STARLINK-30147          
1 57511U 23113S   24016.16973498  .00011594  00000+0  87170-3 0  9994
2 57511  43.0023 315.1734 0001453 246.1773 113.8917 15.02546982 25795
STARLINK-30157          
1 57512U 23113T   24015.91667824 -.00637849  00000+0 -39116-1 0  9994
2 57512  43.0000 290.7100 0001598 317.4157 174.2020 15.11795269  5747
STARLINK-30168          
1 57513U 23113U   24016.17306399  .00027167  00000+0  20177-2 0  9993
2 57513  43.0029 315.1718 0001378 268.7570  91.3114 15.02549061 25639
STARLINK-30231          
1 57514U 23113V   24016.08994968  .00031369  00000+0  23271-2 0  9996
2 57514  43.0029 315.4279 0001231 282.9325  77.1380 15.02531396 25784
STARLINK-30081          
1 57515U 23113X   24016.07662431  .00004269  00000+0  33088-3 0  9990
2 57515  43.0030 315.3468 0001378 240.9461 119.1243 15.02536075 25787
STARLINK-30149          
1 57516U 23113Y   24016.00016414  .00031844  00000+0  23597-2 0  9990
2 57516  43.0014 315.6282 0000994 267.8562  92.2167 15.02567430 25662
STARLINK-30259          
1 57521U 23115A   24016.13347074  .00036362  00000+0  26915-2 0  9998
2 57521  43.0017 302.6595 0001177 251.7697 108.3017 15.02555772 25556
STARLINK-30256          
1 57522U 23115B   24016.13014253  .00011391  00000+0  85651-3 0  9997
2 57522  43.0015 302.6310 0000934 252.4005 107.6735 15.02555880 25291
STARLINK-30261          
1 57523U 23115C   24016.19328751  .00002059  00000+0  16745-3 0  9994
2 57523  42.9989 302.2429 0001081 240.4470 119.6265 15.02539771 25454
STARLINK-30260          
1 57524U 23115D   24015.85756971  .00004211  00000+0  32652-3 0  9993
2 57524  43.0026 304.0436 0001496 250.4645 109.6036 15.02547040 24409
STARLINK-30253          
1 57525U 23115E   24015.84758314  .00003086  00000+0  24340-3 0  9990
2 57525  43.0022 303.9535 0001249 247.0926 112.9785 15.02536224 24404
STARLINK-30257          
1 57526U 23115F   24016.11682549  .00031565  00000+0  23401-2 0  9997
2 57526  43.0027 302.5596 0001277 244.8203 115.2507 15.02554584 25392
STARLINK-30250          
1 57527U 23115G   24016.17664012  .00041827  00000+0  30907-2 0  9990
2 57527  43.0018 302.1329 0001174 235.2794 124.7938 15.02563742 25342
STARLINK-30269          
1 57528U 23115H   24015.83094315 -.00000129  00000+0  55470-5 0  9992
2 57528  43.0017 303.8528 0000752 255.2857 104.7902 15.02538874 24407
STARLINK-30266          
1 57529U 23115J   24016.15332834  .00012331  00000+0  92573-3 0  9990
2 57529  43.0019 301.9541 0001291 262.7884  97.2811 15.02558321 25490
STARLINK-30270          
1 57530U 23115K   24015.82760752  .00000319  00000+0  38697-4 0  9990
2 57530  43.0024 303.8211 0001672 254.4273 105.6385 15.02526867 24406
STARLINK-30268          
1 57531U 23115L   24015.90740474  .00001894  00000+0  15523-3 0  9990
2 57531  43.0026 303.5575 0001140 243.0424 117.0302 15.02537046 24419
STARLINK-30251          
1 57532U 23115M   24015.97055425  .00009308  00000+0  70334-3 0  9992
2 57532  43.0016 303.1709 0001068 268.8866  91.1854 15.02526190 25534
STARLINK-30254          
1 57533U 23115N   24016.25001157 -.00654581  00000+0 -37003-2 0  9994
2 57533  42.9816 219.8919 0002239 271.3471  91.4790 15.79859282 26346
STARLINK-30264          
1 57534U 23115P   24016.58334491  .00038576  00000+0  28577-2 0  9995
2 57534  42.9995 287.3762 0001606 259.9465  68.7903 15.02500857 25869
STARLINK-30262          
1 57535U 23115Q   24016.14667154  .00003793  00000+0  29567-3 0  9997
2 57535  43.0013 301.8983 0001554 248.7112 111.3564 15.02544410 25509
STARLINK-30166          
1 57602U 23119A   24015.99551304  .00029099  00000+0  21603-2 0  9996
2 57602  43.0041  20.3518 0000574 294.8836  65.1946 15.02534741 25133
STARLINK-30223          
1 57603U 23119B   24016.44087659  .00041280  00000+0  30512-2 0  9990
2 57603  43.0042  17.6730 0000557 263.3036  96.7742 15.02557885 25255
STARLINK-30218          
1 57604U 23119C   24016.11514897  .00025803  00000+0  19180-2 0  9995
2 57604  43.0038  19.5282 0000730 272.9187  87.1572 15.02539436 25202
STARLINK-30138          
1 57605U 23119D   24016.44420502  .00038959  00000+0  28818-2 0  9995
2 57605  43.0040  17.6976 0000704 257.9514 102.1250 15.02553069 25257
STARLINK-30255          
1 57606U 23119E   24016.01758744  .00002643  00000+0  21071-3 0  9997
2 57606  43.0038  19.6582 0000715 247.5560 112.5207 15.02529701 25183
STARLINK-30252          
1 57607U 23119F   24016.05562102  .00015182  00000+0  11365-2 0  9999
2 57607  43.0025   7.2037 0000622 223.8929 136.1864 15.02535963 25291
STARLINK-30258          
1 57608U 23119G   24016.36773768  .00014785  00000+0  11071-2 0  9998
2 57608  43.0029  17.9821 0000905 243.3388 116.7362 15.02540357 25240
STARLINK-30174          
1 57609U 23119H   24016.09518657  .00036824  00000+0  27273-2 0  9992
2 57609  43.0037  19.3785 0000732 262.9316  97.1443 15.02528512 25208
STARLINK-30248          
1 57610U 23119J   24016.16499285  .00058970  00000+0  43466-2 0  9995
2 57610  43.0035  19.0416 0001162 250.4502 109.6214 15.02512080 25166
STARLINK-30052          
1 57611U 23119K   24016.02535898  .00012052  00000+0  90597-3 0  9991
2 57611  43.0037  19.7148 0000501 255.6036 104.4750 15.02525895 25204
STARLINK-30245          
1 57612U 23119L   24016.08850515  .00004302  00000+0  33347-3 0  9993
2 57612  43.0034  19.3278 0000914 222.6978 137.3793 15.02522182 25218
STARLINK-30041          
1 57613U 23119M   24016.15165183  .00019896  00000+0  14836-2 0  9997
2 57613  43.0041  18.9422 0000717 242.7263 117.3507 15.02538912 25213
STARLINK-30244          
1 57614U 23119N   24016.08184635  .00011375  00000+0  85608-3 0  9993
2 57614  43.0046  19.2777 0000711 253.9605 106.1159 15.02523357 25209
STARLINK-30246          
1 57615U 23119P   24016.34552944 -.00004580  00000+0 -32435-3 0  9997
2 57615  43.0040  17.8014 0000895 266.0810  93.9930 15.02522816 25230
STARLINK-30075          
1 57616U 23119Q   24016.07530449  .00019416  00000+0  14485-2 0  9990
2 57616  43.0035  20.0895 0001187 266.3027  93.7680 15.02532564 25192
STARLINK-30148          
1 57617U 23119R   24016.07197519  .00020639  00000+0  15384-2 0  9996
2 57617  43.0033  20.0651 0000701 268.1733  91.9029 15.02536182 25193
STARLINK-30249          
1 57618U 23119S   24016.06864774  .00021482  00000+0  16007-2 0  9990
2 57618  43.0038  20.0387 0000328 301.5304  58.5506 15.02530211 25147
STARLINK-30141          
1 57620U 23119U   24016.05754522 -.00002238  00000+0 -15073-3 0  9994
2 57620  43.0033  19.9553 0000650 239.0721 121.0057 15.02528499 25145
STARLINK-30150          
1 57621U 23119V   24016.12513506  .00019825  00000+0  14791-2 0  9991
2 57621  43.0028  19.6045 0000741 235.0580 125.0193 15.02519978 25207
STARLINK-30056          
1 57622U 23119W   24016.03600747  .00006003  00000+0  46920-3 0  9990
2 57622  43.0036  19.7729 0001081 265.9605  94.1114 15.01702486 25199
STARLINK-30100          
1 57623U 23119X   24016.05199790  .00018206  00000+0  13597-2 0  9995
2 57623  43.0040  19.9149 0000718 221.3331 138.7457 15.02524100 25192
STARLINK-30309          
1 57632U 23122A   24016.09165983  .00003427  00000+0  26863-3 0  9990
2 57632  43.0022  32.8839 0000797 255.6770 104.3984 15.02533729 24286
STARLINK-30306          
1 57633U 23122B   24016.35424055  .00019894  00000+0  14826-2 0  9998
2 57633  43.0030  31.4153 0000698 264.8705  95.2057 15.02561701 24336
STARLINK-30323          
1 57634U 23122C   24016.08293608 -.00006661  00000+0 -47869-3 0  9991
2 57634  43.0019  19.2351 0001332 266.0238  94.0452 15.02519162 24441
STARLINK-30329          
1 57635U 23122D   24016.01852274  .00013487  00000+0  10119-2 0  9994
